OBJECT_NAME,OBJECT_ID,EPOCH,MEAN_MOTION,ECCENTRICITY,INCLINATION,RA_OF_ASC_NODE,ARG_OF_PERICENTER,MEAN_ANOMALY,EPHEMERIS_TYPE,CLASSIFICATION_TYPE,NORAD_CAT_ID,ELEMENT_SET_NO,REV_AT_EPOCH,BSTAR,MEAN_MOTION_DOT,MEAN_MOTION_DDOT
CUTE-1 (CO-55),2003-031E,2026-07-08T22:54:25.227360,14.24348882,.00106848,98.6739,198.2397,118.8005,241.4249,0,U,27844,999,19477,.10410026E-3,.197E-5,0
CUBESAT XI-IV (CO-57),2003-031J,2026-07-08T11:05:05.892000,14.23632050,.00102587,98.6772,197.4488,137.0463,223.1519,0,U,27848,999,19440,.99678022E-4,.184E-5,0
CUBESAT XI-V,2005-043F,2026-07-08T09:32:36.268800,14.72690312,.00150041,98.3007,345.4679,135.1728,225.0694,0,U,28895,999,10487,.17854786E-3,.1087E-4,0
CUTE-1.7+APD II (CO-65),2008-021C,2026-07-08T22:11:03.385536,15.09662179,.00074789,97.8286,171.7992,325.1210,34.9527,0,U,32785,999,98847,.17517471E-3,.2753E-4,0
CANX-2,2008-021H,2026-07-08T21:16:25.426560,15.05778327,.00094561,97.8652,170.0887,340.1450,19.9407,0,U,32790,999,98807,.19555933E-3,.277E-4,0
SEEDS II (CO-66),2008-021J,2026-07-08T22:26:38.629248,15.33517693,.00023514,97.7528,188.8830,170.9352,189.1933,0,U,32791,999,99062,.39659306E-3,.12773E-3,0
SWISSCUBE,2009-051B,2026-07-08T04:08:27.012768,14.62521876,.00074785,98.4017,97.4251,138.1087,222.0687,0,U,35932,999,89222,.15442235E-3,.734E-5,0
BEESAT-1,2009-051C,2026-07-08T16:07:48.536256,14.61755226,.00057337,98.3944,97.5236,147.2714,212.8843,0,U,35933,999,89232,.12965586E-3,.597E-5,0
ITUPSAT1,2009-051E,2026-07-08T13:04:29.830080,14.60472478,.00076108,98.4027,96.5634,162.4704,197.6760,0,U,35935,999,89185,.12544193E-3,.56E-5,0
TISAT 1,2010-035E,2026-07-08T19:12:20.335968,15.32560746,.00040431,98.0702,138.2805,132.5191,227.6391,0,U,36799,999,87101,.4698152E-3,.14699E-3,0
STRAND-1,2013-009E,2026-07-08T22:00:42.585120,14.37176360,.00090498,98.3931,9.6176,158.4879,201.6690,0,U,39090,999,70018,.79795133E-4,.195E-5,0
BRITE-AUSTRIA,2013-009F,2026-07-08T22:32:48.990624,14.36550763,.00103859,98.4005,8.8378,168.5831,191.5593,0,U,39091,999,70017,.53492733E-4,.114E-5,0
NEE-01 PEGASO,2013-018B,2026-07-08T15:14:13.880832,14.93773274,.0013931,98.1251,334.4982,93.6559,266.6253,0,U,39151,999,71390,.1576398E-3,.1612E-4,0
POPACS 2,2013-055E,2026-07-08T05:49:32.875104,14.91823858,.04155143,80.9910,120.0851,126.1925,237.8477,0,U,39269,999,66635,.20236197E-3,.12393E-3,-.883277E-6
POPACS 3,2013-055F,2026-07-08T11:39:55.878624,14.56541276,.05496215,80.9993,206.0862,5.1431,355.5089,0,U,39270,999,64165,.21220132E-3,.8965E-4,0
ZACUBE-1 (TSHEPISOSAT),2013-066B,2026-07-08T20:52:09.628896,15.01310102,.00436263,97.8017,152.3146,175.4835,184.6792,0,U,39417,999,68398,.12202573E-3,.1537E-4,0
WNISAT-1,2013-066H,2026-07-08T21:31:20.623008,14.58110223,.01634518,97.7227,337.5149,163.0582,197.6169,0,U,39423,999,66989,.17078884E-3,.897E-5,0
TRITON-1,2013-066M,2026-07-08T21:43:34.255776,14.81780191,.00900854,97.8222,99.2161,162.5181,197.9169,0,U,39427,999,67730,.14560342E-3,.1176E-4,0
GOMX-1,2013-066Q,2026-07-08T23:24:11.414304,14.69532398,.01288326,97.6477,29.0627,8.1911,352.1358,0,U,39430,999,67311,.15765827E-3,.101E-4,0
CUBEBUG-2 (LO-74),2013-066AA,2026-07-08T19:58:33.206592,14.93942220,.00561731,97.8908,138.9052,317.0714,42.6128,0,U,39440,999,68022,.18158743E-3,.193E-4,0
NEE-02 KRYSAOR,2013-066AB,2026-07-08T19:32:28.519872,14.86721722,.00659857,97.8889,128.8760,0.3069,359.8176,0,U,39441,999,67941,.15917378E-3,.1413E-4,0
FUNCUBE-1 (AO-73),2013-066AE,2026-07-08T20:44:00.542688,15.09765418,.00376927,97.8287,161.7669,128.2905,232.1724,0,U,39444,999,68293,.30571622E-3,.4949E-4,0
UWE-3,2013-066AG,2026-07-08T08:04:01.539552,14.97171964,.00475215,97.8696,145.5560,248.4998,111.1154,0,U,39446,999,68074,.1520418E-3,.1733E-4,0
BRITE-CA1 (TORONTO),2014-033L,2026-07-08T21:58:43.239072,14.72714360,.00779874,97.9764,318.4465,206.4501,153.2717,0,U,40020,999,64541,.11398979E-3,.709E-5,0
DUCHIFAT-1,2014-033M,2026-07-08T17:37:27.941952,15.69682214,.00018129,98.0439,252.0028,257.7492,102.3565,0,U,40021,999,65912,.9949152E-3,.119204E-2,0
NANOSATC-BR1,2014-033Q,2026-07-08T21:25:51.070944,15.32184216,.00053051,98.0720,224.2139,111.5840,248.5966,0,U,40024,999,65730,.39647021E-3,.12243E-3,0
QB50P1,2014-033R,2026-07-08T12:02:04.909344,15.18598212,.00099345,98.0973,202.1461,144.4347,215.7549,0,U,40025,999,65626,.27786497E-3,.5677E-4,0
QB50P2,2014-033Y,2026-07-08T22:59:01.836096,15.15452069,.00093297,98.0762,188.1976,101.2367,258.9913,0,U,40032,999,65596,.24733275E-3,.4607E-4,0
PERSEUS-M2,2014-033AD,2026-07-08T22:35:53.346624,14.95574111,.0010642,97.9965,140.9261,222.0271,138.0133,0,U,40037,999,65403,.11969426E-3,.1268E-4,0
PERSEUS-M1,2014-033AF,2026-07-08T20:18:07.295328,14.95699156,.00105581,97.9646,134.3348,219.7065,140.3384,0,U,40039,999,65387,.11442449E-3,.1214E-4,0
